ISS (ZARYA)             
1 25544U 98067A   21100.68425987  .00001033  00000-0  27007-4 0  9990
2 25544  51.6450 316.6023 0002900 208.4043 258.7769 15.48879316278133
KESTREL EYE IIM (KE2M)  
1 42982U 98067NE  21100.49836804  .00040944  00000-0  15288-3 0  9999
2 42982  51.6294 190.3789 0000429 347.9140  12.1854 15.87525873197935
DELLINGR (RBLE)         
1 43021U 98067NJ  21100.60433551  .00084521  13958-4  23548-3 0  9996
2 43021  51.6269 184.3134 0003988   6.0773 354.0282 15.93747752193799
TEMPEST-D               
1 43547U 98067NV  21100.42466850  .00039416  00000-0  14800-3 0  9991
2 43547  51.6324 238.2449 0004720 339.1815  20.8997 15.87418494156144
AEROCUBE 12A            
1 43556U 18046C   21100.60793169  .00001333  00000-0  55330-4 0  9997
2 43556  51.6392 116.3561 0007263 282.8864  77.1306 15.31352605152889
AEROCUBE 12B            
1 43557U 18046D   21100.48169113  .00001165  00000-0  50643-4 0  9995
2 43557  51.6409 118.4849 0007417 280.7945  79.2201 15.30821486152793
LEMUR-2-VU              
1 43558U 18046E   21100.40021383  .00001541  00000-0  58651-4 0  9999
2 43558  51.6397 110.6423 0006627 289.3485  70.6780 15.33292572152932
LEMUR-2-ALEXANDER       
1 43559U 18046F   21100.39662483  .00001610  00000-0  60358-4 0  9994
2 43559  51.6395 109.8887 0006569 289.3263  70.7009 15.33519290152725
LEMUR-2-YUASA           
1 43560U 18046G   21100.43121933  .00002889  00000-0  10006-3 0  9994
2 43560  51.6397 110.8448 0006967 302.4002  57.6305 15.33231467152937
LEMUR-2-TOMHENDERSON    
1 43561U 18046H   21100.43400629  .00003668  00000-0  12511-3 0  9996
2 43561  51.6396 111.5987 0007196 298.5456  61.4801 15.32917566152480
1998-067PN              
1 43638U 98067PN  21100.50457914  .00034014  00000-0  20502-3 0  9997
2 43638  51.6320 237.2631 0001430  25.2067 334.9003 15.77340614143320
STARS-ME                
1 43640U 98067PQ  21100.52931512  .00075814  00000-0  30031-3 0  9994
2 43640  51.6293 225.9939 0003217 356.0077   4.0900 15.86053907143471
ISS DEB (SEDA-AP)       
1 43870U 98067PU  21100.47264824  .00006523  00000-0  81014-4 0  9997
2 43870  51.6349 274.0317 0003900  80.6530 279.4905 15.61388658131002
CATSAT-2                
1 44029U 98067PV  21099.61878888  .01322101  13348-2  88933-3 0  9999
2 44029  51.6358 230.5438 0009173 319.8099  40.2239 16.16379765125237
UNITE                   
1 44031U 98067PX  21100.03268877  .00032283  00000-0  23311-3 0  9998
2 44031  51.6363 257.5447 0000699 120.0408 240.0660 15.73205515124886
CATSAT-1                
1 44033U 98067PZ  21099.37453408  .01146742  90569-3  86077-3 0  9997
2 44033  51.6489 231.9109 0006832 307.7099  52.1670 16.14796910125102
ISS DEB                 
1 44303U 98067QA  21100.25907625  .00006326  00000-0  88296-4 0  9998
2 44303  51.6385 295.2877 0004517 357.1638   2.9328 15.58309866105971
ISS DEB                 
1 44306U 98067QD  21100.56302986  .00006802  00000-0  92822-4 0  9993
2 44306  51.6371 293.4709 0005656 353.8600   6.2322 15.58776742106030
RAAVANA-1               
1 44329U 98067QE  21100.49420178  .00032686  00000-0  25873-3 0  9994
2 44329  51.6344 274.2321 0003140  20.4884 339.6239 15.71015006103456
UGUISU                  
1 44330U 98067QF  21100.47307662  .00033020  00000-0  26498-3 0  9993
2 44330  51.6316 274.7647 0003126  20.9693 339.1432 15.70680833103422
NEPALISAT-1             
1 44331U 98067QG  21100.48703867  .00033005  00000-0  26176-3 0  9998
2 44331  51.6320 274.1072 0003042  25.0258 335.0887 15.70964269103443
SPOOQY-1                
1 44332U 98067QH  21100.53632849  .00031457  00000-0  25580-3 0  9993
2 44332  51.6327 274.4683 0002544  27.9246 332.1888 15.70389667103404
RED-EYE 1 (PINOT)       
1 44364U 98067QJ  21100.53884466  .00006612  00000-0  92320-4 0  9994
2 44364  51.6385 294.8934 0005812 354.3567   5.7359 15.58213064101599
KRAKSAT                 
1 44427U 98067QM  21100.54000015  .00019348  00000-0  20365-3 0  9994
2 44427  51.6399 285.0453 0002156 345.2312  69.1081 15.64304820100837
VCC A                   
1 44428U 98067QN  21100.21623197  .00029731  00000-0  25213-3 0  9995
2 44428  51.6358 279.2022 0001806 333.2724  26.8180 15.69405733100880
ENTRYSAT                
1 44429U 98067QP  21100.50580222  .00051423  00000-0  33991-3 0  9994
2 44429  51.6300 271.2434 0002449 310.5242  49.5544 15.75040768101016
VCC C                   
1 44430U 98067QQ  21100.47517048  .00158593  00000-0  55114-3 0  9995
2 44430  51.6258 261.9484 0005662 299.9508  60.0935 15.88403508 99967
VCC B                   
1 44431U 98067QR  21100.57256418  .00030731  00000-0  25642-3 0  9994
2 44431  51.6325 277.0061 0001959 334.2406  25.8493 15.69780552100885
ISS DEB                 
1 44788U 98067QT  21100.59115744  .00142713  00000-0  61826-3 0  9995
2 44788  51.6271 277.8247 0004828 308.1738  51.8829 15.83923915 79908
ISS DEB                 
1 44789U 98067QU  21100.51352883  .00085825  00000-0  48074-3 0  9995
2 44789  51.6308 281.8660 0003061 313.8215  46.2533 15.78581959 79839
RWASAT-1                
1 44790U 98067QV  21100.58478807  .00011436  00000-0  15478-3 0  9998
2 44790  51.6399 300.3344 0006661  50.1162 347.3451 15.58204478 78860
AQT-D                   
1 44791U 98067QW  21100.10254630  .00010742  00000-0  14538-3 0  9998
2 44791  51.6392 303.2691 0005578  15.0360 345.0797 15.58286643 78780
NARSSCUBE-1             
1 44792U 98067QX  21100.00121455  .00021393  00000-0  23693-3 0  9992
2 44792  51.6367 298.0065 0003263  35.5417 324.5794 15.62926221 78842
STPSAT-4                
1 45043U 98067QY  21100.59979138  .00005354  00000-0  90674-4 0  9998
2 45043  51.6407 311.7555 0005146  31.5919 328.5380 15.53302101 67959
HARP                    
1 45256U 98067QZ  21100.19745699  .00010530  00000-0  14910-3 0  9993
2 45256  51.6413 308.3729 0006077  20.8265 339.2974 15.57087762 64633
1998-067RA              
1 45257U 98067RA  21100.13389910  .00009714  00000-0  14272-3 0  9991
2 45257  51.6396 309.4082 0006622  24.6670 335.4637 15.56181477 64615
PHOENIX                 
1 45258U 98067RB  21100.61012363  .00007063  00000-0  10915-3 0  9995
2 45258  51.6397 308.0742 0005097   6.8780 353.2280 15.55298474 64644
1998-067RC              
1 45259U 98067RC  21100.58772086  .00014347  00000-0  18645-3 0  9998
2 45259  51.6391 304.1871 0005302  23.8985 336.2252 15.59056424 64724
CRYOCUBE                
1 45260U 98067RD  21100.16186307  .00021098  00000-0  26206-3 0  9992
2 45260  51.6384 305.8446 0005132  21.1234 338.9970 15.59937786 64672
AZTECHSAT-1             
1 45261U 98067RE  21100.60254513  .00019585  00000-0  22924-3 0  9998
2 45261  51.6370 301.2756 0005008  23.1301 336.9917 15.61550020 64765
RADSAT-U                
1 45262U 98067RF  21100.03763330  .00010453  00000-0  15146-3 0  9991
2 45262  51.6416 309.5556 0005775  59.3331 300.8229 15.56468908 64618
QARMAN                  
1 45263U 98067RG  21100.57249295  .00015315  00000-0  19971-3 0  9992
2 45263  51.6390 304.8319 0005300  19.5507 340.5688 15.58903224 64743
SORTIE                  
1 45264U 98067RH  21100.57573448  .00005804  00000-0  95460-4 0  9993
2 45264  51.6414 310.1260 0007066  29.7061 330.4330 15.53944315 64647
ICS-EF (ISS DEB)        
1 45265U 98067RJ  21100.61481205  .00002988  00000-0  56608-4 0  9999
2 45265  51.6413 313.3469 0005267  31.5319 328.5985 15.51877507 64281
PROGRESS-MS 14          
1 45595U 20026A   21100.55160248  .00001194  00000-0  29935-4 0  9990
2 45595  51.6453 317.2582 0002862 208.3262 238.6763 15.48879686278119
G-SAT                   
1 45597U 98067RK  21100.12613863  .00010626  00000-0  15574-3 0  9994
2 45597  51.6402 310.8689 0004325  85.6592 274.4894 15.56139748 53964
QUETZAL-1               
1 45598U 98067RL  21100.60319127  .00012713  00000-0  17729-3 0  9997
2 45598  51.6398 308.0515 0002384 120.0916 240.0313 15.57291149 53974
RED-EYE 2 (MERLOT)      
1 45800U 98067RM  21100.59865390  .00004422  00000-0  78062-4 0  9995
2 45800  51.6418 313.2623 0001539  68.9728 291.1426 15.52598772 46143
RED-EYE 3 (CABERNET)    
1 45809U 98067RN  21100.21282628  .00004514  00000-0  79537-4 0  9990
2 45809  51.6420 315.1857 0001522  56.0559 304.0575 15.52596071 45066
DEMI                    
1 45916U 98067RP  21100.56808677  .00011800  00000-0  17057-3 0  9999
2 45916  51.6410 310.0745 0001638 326.4943  33.5945 15.56395275 42152
SOYUZ-MS 17             
1 46613U 20072A   21100.55160248  .00001194  00000-0  29935-4 0  9993
2 46613  51.6453 317.2582 0002862 208.3262 238.6763 15.48879686278111
CREW DRAGON 1           
1 46920U 20084A   21100.55160248  .00001194  00000-0  29935-4 0  9997
2 46920  51.6453 317.2582 0002862 208.3262 238.6763 15.48879686278112
SPOC                    
1 46921U 98067RR  21100.02522765  .00007604  00000-0  12671-3 0  9992
2 46921  51.6426 316.9463 0002464 170.6128 189.4909 15.53060759 24222
BOBCAT-1                
1 46922U 98067RS  21100.61671675  .00010192  00000-0  16063-3 0  9998
2 46922  51.6430 313.4069 0002194 177.0813 183.0191 15.54191747 24286
NEUTRON-1               
1 46923U 98067RT  21100.61452310  .00006710  00000-0  11313-3 0  9996
2 46923  51.6423 314.1303 0002211 185.0196 175.0772 15.52951000 24348
1998-067RU              
1 46924U 98067RU  21100.01041063  .00018872  00000-0  26901-3 0  9991
2 46924  51.6407 315.3430 0002220 212.3031 147.7825 15.56340816 24242
LEMUR-2-BAXTER-OLIVER   
1 46925U 98067RV  21100.62651041  .00016407  00000-0  23042-3 0  9997
2 46925  51.6427 311.9771 0001959 220.3068 139.7779 15.56856180 24304
LEMUR-2-DJARA           
1 46926U 98067RW  21100.58257601  .00016094  00000-0  23034-3 0  9990
2 46926  51.6428 312.4306 0001451 197.9749 162.1192 15.56359594 24315
DESCENT                 
1 46927U 98067RX  21100.10365552  .00007293  00000-0  12242-3 0  9994
2 46927  51.6422 316.7165 0002143 204.3788 155.7102 15.52924388 24173
PROGRESS-MS 16          
1 47618U 21011A   21100.55160248  .00001194  00000-0  29935-4 0  9993
2 47618  51.6453 317.2582 0002862 208.3262 238.6763 15.48879686278117
CYGNUS NG-15            
1 47689U 21013A   21100.55160248  .00001194  00000-0  29935-4 0  9993
2 47689  51.6453 317.2582 0002862 208.3262 238.6763 15.48879686278115
ISS DEB                 
1 47853U 98067RZ  21100.59593487  .00001371  00000-0  32797-4 0  9995
2 47853  51.6453 316.9914 0002749 189.5222 170.5715 15.49226094  4740
RSP-01                  
1 47925U 98067SB  21099.87381775  .00007900  00000-0  14530-3 0  9996
2 47925  51.6433 320.4205 0002906 138.7610 221.3599 15.50187241  4133
TAUSAT-1                
1 47926U 98067SC  21100.12701410  .00009053  00000-0  16335-3 0  9996
2 47926  51.6433 319.1120 0004128 141.8056 218.3226 15.50532420  4161
TSURU                   
1 47927U 98067SD  21099.87394935  .00007239  00000-0  13395-3 0  9993
2 47927  51.6433 320.4213 0002913 136.0720 224.0501 15.50159106  4137
STARS-EC                
1 47928U 98067SE  21100.58387652  .00005866  00000-0  11025-3 0  9995
2 47928  51.6427 316.9112 0005920 214.3240 145.7367 15.50109812  4225
MMSATS-1                
1 47976U 98067SJ  21100.59677453  .00003005  00000-0  62061-4 0  9990
2 47976  51.6455 316.9867 0002941 179.9022 180.1964 15.49294933  3020
SOYUZ-MS 18             
1 48159U 21029A   21100.55160248  .00001194  00000-0  29935-4 0  9993
2 48159  51.6453 317.2582 0002862 208.3262 238.6763 15.48879686278118
2021-029B               
1 48160U 21029B   21100.60466923  .01432689  12068-4  38125-3 0  9999
2 48160  51.6578 316.3555 0019525  72.6071 287.7327 16.27001533   213
